NUSAT-1 (FRESCO)        
1 41557U 16033B   21305.95763066  .00006286  00000-0  21636-3 0  9991
2 41557  97.3928  39.1884 0014126 104.7274   8.9230 15.30319257302557
BEESAT-4                
1 41619U 16040W   21305.71231453  .00007448  00000-0  28825-3 0  9990
2 41619  97.2536 357.9000 0009886 196.6168 163.4749 15.26430388285949
CAS-2T & KS-1Q          
1 41847U 16066G   21305.59830916  .00000626  00000-0  10378-3 0  9991
2 41847  98.5852   5.1894 0365290 170.7662 190.0491 14.38269144261593
NAYIF-1 (EO-88)         
1 42017U 17008BX  21305.63620761  .00008406  00000-0  29899-3 0  9990
2 42017  97.3023  10.7483 0005362 358.6752   1.4473 15.29212617262213
ZHUHAI-1 02 (CAS-4B)    
1 42759U 17034B   21305.92946828  .00001308  00000-0  91256-4 0  9990
2 42759  43.0163 145.1516 0009421 303.0689 199.9744 15.10495237241933
ZHUHAI-1 01 (CAS-4A)    
1 42761U 17034D   21305.90374715  .00001351  00000-0  93582-4 0  9993
2 42761  43.0162 144.2455 0009785 304.2169 151.2916 15.10581342241931
MAX VALIER SAT          
1 42778U 17036P   21305.87187732  .00004639  00000-0  19283-3 0  9997
2 42778  97.2399 349.9007 0013026  57.1140 303.1349 15.24196789242217
RADFXSAT (FOX-1B)       
1 43017U 17073E   21305.67564734  .00001839  00000-0  14625-3 0  9998
2 43017  97.6927 204.1401 0252871 212.2483 146.3055 14.79901292213415
FOX-1D (AO-92)          
1 43137U 18004AC  21305.88022820  .00005804  00000-0  22860-3 0  9990
2 43137  97.3958  18.4672 0010231  88.0039 272.2371 15.25945539211617
DIWATA-2B               
1 43678U 18084H   21305.89056328  .00000030  00000-0  87809-5 0  9991
2 43678  97.9419  72.0264 0009113 324.8399  35.2219 14.91817392163920
ES'HAIL 2               
1 43700U 18090A   21305.37757616  .00000152  00000-0  00000-0 0  9993
2 43700   0.0340  99.0288 0002515 149.3821 314.2451  1.00274291 10748
FOX-1CLIFF (AO-95)      
1 43770U 18099N   21305.42103745  .00001326  00000-0  12467-3 0  9990
2 43770  97.6518  12.4949 0013464 324.8301  35.2030 14.95510898158925
ITASAT 1                
1 43786U 18099AE  21305.64879206  .00000853  00000-0  81480-4 0  9999
2 43786  97.6536  13.4908 0014069 315.4116  44.5973 14.95777032158991
JY1SAT (JO-97)          
1 43803U 18099AX  21305.92297869  .00001416  00000-0  13092-3 0  9998
2 43803  97.6495  13.4977 0013898 313.7800  46.2271 14.96062500159046
UWE-4                   
1 43880U 18111E   21305.47993988  .00001915  00000-0  17089-3 0  9997
2 43880  97.6762 210.8027 0012341  12.2408 347.9111 14.97077755155582
NEXUS (FO-99)           
1 43937U 19003F   21305.55818313  .00006350  00000-0  24400-3 0  9991
2 43937  97.1623 343.1965 0021028 243.8453 116.0624 15.26560624155175
PSAT2 (NO-104)          
1 44354U 19036R   21305.64003943  .00047815  00000-0  59769-3 0  9993
2 44354  28.5275 289.2002 0304369 328.6268  29.6491 15.19024585129816
BRICSAT2 (NO-103)       
1 44355U 19036S   21305.90243124  .00093043 -40110-5  81653-3 0  9993
2 44355  28.5237 215.6873 0215679  88.2168 274.3121 15.42941222130573
JAISAT-1                
1 44419U 19038F   21305.77905898  .00004828  00000-0  26583-3 0  9996
2 44419  97.6058 270.1425 0020202 194.0335 166.0338 15.14343544128575
DUCHIFAT-3              
1 44854U 19089C   21305.89057713  .00001779  00000-0  14752-3 0  9999
2 44854  36.9684   7.7341 0007507 178.5730 181.5060 14.99747177103747
CAS-6 (TO-108)          
1 44881U 19093C   21305.77905964  .00000237  00000-0  36979-4 0  9995
2 44881  97.9149  23.0464 0014331 201.7952 158.2650 14.81500780101062
RS-44 & BREEZE-KM R/B   
1 44909U 19096E   21305.91574188  .00000014  00000-0  28365-5 0  9999
2 44909  82.5261  21.4701 0218296 131.5888 230.4152 12.79711278 86409
ORBITAL FACTORY 2 (OF-2)
1 45113U 19071C   21305.78247610  .00011807  00000-0  32781-3 0  9999
2 45113  51.6404  91.0483 0011598  71.0233 289.2006 15.37272732 98284
HUSKYSAT-1 (HO-107)     
1 45119U 19071J   21305.79568903  .00011239  00000-0  31357-3 0  9994
2 45119  51.6407  90.3768 0011034  67.4436 292.7714 15.37180004 98285
BY70-2                  
1 45857U 20042B   21305.80928110  .00002754  00000-0  39311-3 0  9995
2 45857  97.9749  20.1063 0012328 128.6307 231.6025 14.77480418 71822
SALSAT                  
1 46495U 20068K   21305.89029351  .00001379  00000-0  10510-3 0  9992
2 46495  97.7018 242.6424 0016065 333.4274  26.6129 15.03638905 59987
BY70-3                  
1 46839U 20079N   21305.87711046  .00008914  00000-0  26454-3 0  9999
2 46839  97.2285  17.0132 0008713  75.6189  55.2773 15.34993750 55278
RADFXSAT-2 (AO-109)     
1 47311U 21002C   21305.92895466  .00004919  00000-0  21939-3 0  9991
2 47311  60.6857 136.3572 0039642 116.8729 243.6419 15.22284816 43796
UVSQ-SAT                
1 47438U 21006AB  21305.65089674  .00003670  00000-0  20801-3 0  9991
2 47438  97.4720   4.3299 0012163 351.7143   8.3886 15.13556405 42803
DIY-1 (ARDUIQUBE)       
1 47963U 21022AH  21305.41857224  .00009008  00000-0  58426-3 0  9995
2 47963  97.5449 205.2949 0018434 192.3877 167.6901 15.08173398 32535
